ONEWEB-0428             
1 51629U 22012H   25242.08924358 -.00000473  00000+0 -13904-2 0  9998
2 51629  87.8757  94.3386 0001580  77.8637 282.2667 13.10373685171168
ONEWEB-0431             
1 51630U 22012J   25242.05924480  .00000185  00000+0  49349-3 0  9994
2 51630  87.8758  94.3156 0000972  80.4674 279.6563 13.10370793171219
ONEWEB-0434             
1 51631U 22012K   25242.11252246  .00000554  00000+0  15499-2 0  9994
2 51631  87.8760  94.3474 0002335  86.3713 273.7682 13.10374854171208
ONEWEB-0435             
1 51632U 22012L   25242.12081164  .00000679  00000+0  19075-2 0  9997
2 51632  87.8755  94.3377 0001616  68.0253 292.1046 13.10373134171199
ONEWEB-0436             
1 51633U 22012M   25242.22481165 -.00000007  00000+0 -51476-4 0  9994
2 51633  87.9027  63.7243 0001526  83.7286 276.4020 13.17649792175368
ONEWEB-0438             
1 51634U 22012N   25242.10419455 -.00000029  00000+0 -11797-3 0  9990
2 51634  87.8760  94.3418 0001839  84.4204 275.7133 13.10375450171229
ONEWEB-0439             
1 51635U 22012P   25242.10751684  .00000152  00000+0  39926-3 0  9993
2 51635  87.8762  94.3295 0001732  80.5455 279.5868 13.10375882171206
ONEWEB-0442             
1 51636U 22012Q   25242.21722013  .00000009  00000+0 -87649-5 0  9999
2 51636  87.9025  63.7796 0002197 102.1505 257.9873 13.17647856175355
ONEWEB-0443             
1 51637U 22012R   25242.23662353  .00000103  00000+0  23180-3 0  9994
2 51637  87.9022  63.7841 0002044  85.6121 274.5244 13.17648326175400
ONEWEB-0444             
1 51638U 22012S   25242.09756754 -.00000167  00000+0 -51387-3 0  9990
2 51638  87.8759  94.3320 0001728  77.2730 282.8591 13.10375555171216
ONEWEB-0445             
1 51639U 22012T   25242.11916033  .00000681  00000+0  19141-2 0  9992
2 51639  87.8757  94.2800 0001646  88.0184 272.1132 13.10371509171228
ONEWEB-0446             
1 51640U 22012U   25242.09588675 -.00000187  00000+0 -57190-3 0  9998
2 51640  87.8759  94.3476 0001551  89.3080 270.8225 13.10374624171203
ONEWEB-0448             
1 51641U 22012V   25242.10088786  .00001304  00000+0  36984-2 0  9996
2 51641  87.8758  94.3460 0001713  80.2436 279.8884 13.10368884171178
ONEWEB-0449             
1 51642U 22012W   25242.10587895  .00000244  00000+0  66343-3 0  9997
2 51642  87.8756  94.3164 0002144  85.6060 274.5312 13.10374897171189
ONEWEB-0451             
1 51643U 22012X   25242.22142754  .00000024  00000+0  27844-4 0  9992
2 51643  87.9033  63.7162 0001906  90.7752 269.3598 13.17647980175340
ONEWEB-0452             
1 51644U 22012Y   25242.21976111  .00000065  00000+0  13521-3 0  9995
2 51644  87.9025  63.7798 0002002  86.7711 273.3650 13.17649891175353
ONEWEB-0456             
1 51646U 22012AA  25242.11582580  .00000674  00000+0  18945-2 0  9999
2 51646  87.8762  94.2740 0001589  75.7907 284.3397 13.10375019171225
