[{"OBJECT_NAME":"ONEWEB-0428","OBJECT_ID":"2022-012H","EPOCH":"2025-08-30T02:08:30.645312","MEAN_MOTION":13.10373685,"ECCENTRICITY":0.000158,"INCLINATION":87.8757,"RA_OF_ASC_NODE":94.3386,"ARG_OF_PERICENTER":77.8637,"MEAN_ANOMALY":282.2667,"EPHEMERIS_TYPE":0,"CLASSIFICATION_TYPE":"U","NORAD_CAT_ID":51629,"ELEMENT_SET_NO":999,"REV_AT_EPOCH":17116,"BSTAR":-0.0013904289,"MEAN_MOTION_DOT":-4.73e-6,"MEAN_MOTION_DDOT":0},{"OBJECT_NAME":"ONEWEB-0431","OBJECT_ID":"2022-012J","EPOCH":"2025-08-30T01:25:18.750720","MEAN_MOTION":13.10370793,"ECCENTRICITY":9.728e-5,"INCLINATION":87.8758,"RA_OF_ASC_NODE":94.3156,"ARG_OF_PERICENTER":80.4674,"MEAN_ANOMALY":279.6563,"EPHEMERIS_TYPE":0,"CLASSIFICATION_TYPE":"U","NORAD_CAT_ID":51630,"ELEMENT_SET_NO":999,"REV_AT_EPOCH":17121,"BSTAR":0.00049348957,"MEAN_MOTION_DOT":1.85e-6,"MEAN_MOTION_DDOT":0},{"OBJECT_NAME":"ONEWEB-0434","OBJECT_ID":"2022-012K","EPOCH":"2025-08-30T02:42:01.940544","MEAN_MOTION":13.10374854,"ECCENTRICITY":0.00023357,"INCLINATION":87.876,"RA_OF_ASC_NODE":94.3474,"ARG_OF_PERICENTER":86.3713,"MEAN_ANOMALY":273.7682,"EPHEMERIS_TYPE":0,"CLASSIFICATION_TYPE":"U","NORAD_CAT_ID":51631,"ELEMENT_SET_NO":999,"REV_AT_EPOCH":17120,"BSTAR":0.0015499488,"MEAN_MOTION_DOT":5.54e-6,"MEAN_MOTION_DDOT":0},{"OBJECT_NAME":"ONEWEB-0435","OBJECT_ID":"2022-012L","EPOCH":"2025-08-30T02:53:58.125696","MEAN_MOTION":13.10373134,"ECCENTRICITY":0.00016167,"INCLINATION":87.8755,"RA_OF_ASC_NODE":94.3377,"ARG_OF_PERICENTER":68.0253,"MEAN_ANOMALY":292.1046,"EPHEMERIS_TYPE":0,"CLASSIFICATION_TYPE":"U","NORAD_CAT_ID":51632,"ELEMENT_SET_NO":999,"REV_AT_EPOCH":17119,"BSTAR":0.0019075439,"MEAN_MOTION_DOT":6.79e-6,"MEAN_MOTION_DDOT":0},{"OBJECT_NAME":"ONEWEB-0436","OBJECT_ID":"2022-012M","EPOCH":"2025-08-30T05:23:43.726560","MEAN_MOTION":13.17649792,"ECCENTRICITY":0.00015265,"INCLINATION":87.9027,"RA_OF_ASC_NODE":63.7243,"ARG_OF_PERICENTER":83.7286,"MEAN_ANOMALY":276.402,"EPHEMERIS_TYPE":0,"CLASSIFICATION_TYPE":"U","NORAD_CAT_ID":51633,"ELEMENT_SET_NO":999,"REV_AT_EPOCH":17536,"BSTAR":-5.1475903e-5,"MEAN_MOTION_DOT":-7.0e-8,"MEAN_MOTION_DDOT":0},{"OBJECT_NAME":"ONEWEB-0438","OBJECT_ID":"2022-012N","EPOCH":"2025-08-30T02:30:02.409120","MEAN_MOTION":13.1037545,"ECCENTRICITY":0.0001839,"INCLINATION":87.876,"RA_OF_ASC_NODE":94.3418,"ARG_OF_PERICENTER":84.4204,"MEAN_ANOMALY":275.7133,"EPHEMERIS_TYPE":0,"CLASSIFICATION_TYPE":"U","NORAD_CAT_ID":51634,"ELEMENT_SET_NO":999,"REV_AT_EPOCH":17122,"BSTAR":-0.00011796641,"MEAN_MOTION_DOT":-2.9e-7,"MEAN_MOTION_DDOT":0},{"OBJECT_NAME":"ONEWEB-0439","OBJECT_ID":"2022-012P","EPOCH":"2025-08-30T02:34:49.454976","MEAN_MOTION":13.10375882,"ECCENTRICITY":0.00017329,"INCLINATION":87.8762,"RA_OF_ASC_NODE":94.3295,"ARG_OF_PERICENTER":80.5455,"MEAN_ANOMALY":279.5868,"EPHEMERIS_TYPE":0,"CLASSIFICATION_TYPE":"U","NORAD_CAT_ID":51635,"ELEMENT_SET_NO":999,"REV_AT_EPOCH":17120,"BSTAR":0.0003992595,"MEAN_MOTION_DOT":1.52e-6,"MEAN_MOTION_DDOT":0},{"OBJECT_NAME":"ONEWEB-0442","OBJECT_ID":"2022-012Q","EPOCH":"2025-08-30T05:12:47.819232","MEAN_MOTION":13.17647856,"ECCENTRICITY":0.00021975,"INCLINATION":87.9025,"RA_OF_ASC_NODE":63.7796,"ARG_OF_PERICENTER":102.1505,"MEAN_ANOMALY":257.9873,"EPHEMERIS_TYPE":0,"CLASSIFICATION_TYPE":"U","NORAD_CAT_ID":51636,"ELEMENT_SET_NO":999,"REV_AT_EPOCH":17535,"BSTAR":-8.764931e-6,"MEAN_MOTION_DOT":9.0e-8,"MEAN_MOTION_DDOT":0},{"OBJECT_NAME":"ONEWEB-0443","OBJECT_ID":"2022-012R","EPOCH":"2025-08-30T05:40:44.272992","MEAN_MOTION":13.17648326,"ECCENTRICITY":0.00020446,"INCLINATION":87.9022,"RA_OF_ASC_NODE":63.7841,"ARG_OF_PERICENTER":85.6121,"MEAN_ANOMALY":274.5244,"EPHEMERIS_TYPE":0,"CLASSIFICATION_TYPE":"U","NORAD_CAT_ID":51637,"ELEMENT_SET_NO":999,"REV_AT_EPOCH":17540,"BSTAR":0.00023180328,"MEAN_MOTION_DOT":1.03e-6,"MEAN_MOTION_DDOT":0},{"OBJECT_NAME":"ONEWEB-0444","OBJECT_ID":"2022-012S","EPOCH":"2025-08-30T02:20:29.835456","MEAN_MOTION":13.10375555,"ECCENTRICITY":0.00017285,"INCLINATION":87.8759,"RA_OF_ASC_NODE":94.332,"ARG_OF_PERICENTER":77.273,"MEAN_ANOMALY":282.8591,"EPHEMERIS_TYPE":0,"CLASSIFICATION_TYPE":"U","NORAD_CAT_ID":51638,"ELEMENT_SET_NO":999,"REV_AT_EPOCH":17121,"BSTAR":-0.00051386515,"MEAN_MOTION_DOT":-1.67e-6,"MEAN_MOTION_DDOT":0},{"OBJECT_NAME":"ONEWEB-0445","OBJECT_ID":"2022-012T","EPOCH":"2025-08-30T02:51:35.452512","MEAN_MOTION":13.10371509,"ECCENTRICITY":0.00016468,"INCLINATION":87.8757,"RA_OF_ASC_NODE":94.28,"ARG_OF_PERICENTER":88.0184,"MEAN_ANOMALY":272.1132,"EPHEMERIS_TYPE":0,"CLASSIFICATION_TYPE":"U","NORAD_CAT_ID":51639,"ELEMENT_SET_NO":999,"REV_AT_EPOCH":17122,"BSTAR":0.0019141386,"MEAN_MOTION_DOT":6.81e-6,"MEAN_MOTION_DDOT":0},{"OBJECT_NAME":"ONEWEB-0446","OBJECT_ID":"2022-012U","EPOCH":"2025-08-30T02:18:04.615200","MEAN_MOTION":13.10374624,"ECCENTRICITY":0.00015518,"INCLINATION":87.8759,"RA_OF_ASC_NODE":94.3476,"ARG_OF_PERICENTER":89.308,"MEAN_ANOMALY":270.8225,"EPHEMERIS_TYPE":0,"CLASSIFICATION_TYPE":"U","NORAD_CAT_ID":51640,"ELEMENT_SET_NO":999,"REV_AT_EPOCH":17120,"BSTAR":-0.00057190087,"MEAN_MOTION_DOT":-1.87e-6,"MEAN_MOTION_DDOT":0},{"OBJECT_NAME":"ONEWEB-0448","OBJECT_ID":"2022-012V","EPOCH":"2025-08-30T02:25:16.711104","MEAN_MOTION":13.10368884,"ECCENTRICITY":0.00017135,"INCLINATION":87.8758,"RA_OF_ASC_NODE":94.346,"ARG_OF_PERICENTER":80.2436,"MEAN_ANOMALY":279.8884,"EPHEMERIS_TYPE":0,"CLASSIFICATION_TYPE":"U","NORAD_CAT_ID":51641,"ELEMENT_SET_NO":999,"REV_AT_EPOCH":17117,"BSTAR":0.0036983817,"MEAN_MOTION_DOT":1.304e-5,"MEAN_MOTION_DDOT":0},{"OBJECT_NAME":"ONEWEB-0449","OBJECT_ID":"2022-012W","EPOCH":"2025-08-30T02:32:27.941280","MEAN_MOTION":13.10374897,"ECCENTRICITY":0.00021441,"INCLINATION":87.8756,"RA_OF_ASC_NODE":94.3164,"ARG_OF_PERICENTER":85.606,"MEAN_ANOMALY":274.5312,"EPHEMERIS_TYPE":0,"CLASSIFICATION_TYPE":"U","NORAD_CAT_ID":51642,"ELEMENT_SET_NO":999,"REV_AT_EPOCH":17118,"BSTAR":0.00066343109,"MEAN_MOTION_DOT":2.44e-6,"MEAN_MOTION_DDOT":0},{"OBJECT_NAME":"ONEWEB-0451","OBJECT_ID":"2022-012X","EPOCH":"2025-08-30T05:18:51.339456","MEAN_MOTION":13.1764798,"ECCENTRICITY":0.00019067,"INCLINATION":87.9033,"RA_OF_ASC_NODE":63.7162,"ARG_OF_PERICENTER":90.7752,"MEAN_ANOMALY":269.3598,"EPHEMERIS_TYPE":0,"CLASSIFICATION_TYPE":"U","NORAD_CAT_ID":51643,"ELEMENT_SET_NO":999,"REV_AT_EPOCH":17534,"BSTAR":2.7843546e-5,"MEAN_MOTION_DOT":2.4e-7,"MEAN_MOTION_DDOT":0},{"OBJECT_NAME":"ONEWEB-0452","OBJECT_ID":"2022-012Y","EPOCH":"2025-08-30T05:16:27.359904","MEAN_MOTION":13.17649891,"ECCENTRICITY":0.00020029,"INCLINATION":87.9025,"RA_OF_ASC_NODE":63.7798,"ARG_OF_PERICENTER":86.7711,"MEAN_ANOMALY":273.365,"EPHEMERIS_TYPE":0,"CLASSIFICATION_TYPE":"U","NORAD_CAT_ID":51644,"ELEMENT_SET_NO":999,"REV_AT_EPOCH":17535,"BSTAR":0.00013520653,"MEAN_MOTION_DOT":6.5e-7,"MEAN_MOTION_DDOT":0},{"OBJECT_NAME":"ONEWEB-0456","OBJECT_ID":"2022-012AA","EPOCH":"2025-08-30T02:46:47.349120","MEAN_MOTION":13.10375019,"ECCENTRICITY":0.00015896,"INCLINATION":87.8762,"RA_OF_ASC_NODE":94.274,"ARG_OF_PERICENTER":75.7907,"MEAN_ANOMALY":284.3397,"EPHEMERIS_TYPE":0,"CLASSIFICATION_TYPE":"U","NORAD_CAT_ID":51646,"ELEMENT_SET_NO":999,"REV_AT_EPOCH":17122,"BSTAR":0.0018945311,"MEAN_MOTION_DOT":6.74e-6,"MEAN_MOTION_DDOT":0}]
